ASTROCAST-0402          
1 55109U 23001DE  26068.80661100  .00010930  00000+0  41835-3 0  9996
2 55109  97.5556 160.6821 0004209 216.6984 143.3966 15.26734153129364
STARLINK-31398          
1 59415U 24064T   26068.01537416 -.00000726  00000+0 -16845-4 0  9993
2 59415  43.0035  59.8886 0001289 195.9154 164.1658 15.27586288109125
