[{"OBJECT_NAME":"ASTROCAST-0402","OBJECT_ID":"2023-001DE","EPOCH":"2026-03-09T19:21:31.190400","MEAN_MOTION":15.26734153,"ECCENTRICITY":0.00042092,"INCLINATION":97.5556,"RA_OF_ASC_NODE":160.6821,"ARG_OF_PERICENTER":216.6984,"MEAN_ANOMALY":143.3966,"EPHEMERIS_TYPE":0,"CLASSIFICATION_TYPE":"U","NORAD_CAT_ID":55109,"ELEMENT_SET_NO":999,"REV_AT_EPOCH":12936,"BSTAR":0.00041835119,"MEAN_MOTION_DOT":0.0001093,"MEAN_MOTION_DDOT":0},{"OBJECT_NAME":"STARLINK-31398","OBJECT_ID":"2024-064T","EPOCH":"2026-03-09T00:22:08.327424","MEAN_MOTION":15.27586288,"ECCENTRICITY":0.00012899,"INCLINATION":43.0035,"RA_OF_ASC_NODE":59.8886,"ARG_OF_PERICENTER":195.9154,"MEAN_ANOMALY":164.1658,"EPHEMERIS_TYPE":0,"CLASSIFICATION_TYPE":"U","NORAD_CAT_ID":59415,"ELEMENT_SET_NO":999,"REV_AT_EPOCH":10912,"BSTAR":-1.6845305e-5,"MEAN_MOTION_DOT":-7.26e-6,"MEAN_MOTION_DDOT":0}]
